start=new Date('2022-08-25T00:00:00.000Z').valueOf();
sats=[{"NORAD_CAT_ID":"49414","SEMIMAJOR_AXIS":"6917.892","TLE_LINE1":"1 49414U 21104G   22236.51069364  .00001337  00000-0  10211-3 0  9991","TIME_SYSTEM":"UTC","ELEMENT_SET_NO":"999","INCLINATION":"53.2162","EPOCH":"2022-08-24T12:15:23.930496","PERIAPSIS":"538.408","RCS_SIZE":"LARGE","OBJECT_TYPE":"PAYLOAD","EPHEMERIS_TYPE":"0","OBJECT_NAME":"STARLINK-3146","REV_AT_EPOCH":"4340","BSTAR":"0.00010211000000","REF_FRAME":"TEME","COUNTRY_CODE":"US","APOAPSIS":"541.107","MEAN_MOTION_DDOT":"0.0000000000000","OBJECT_ID":"2021-104G","PERIOD":"95.438","TLE_LINE2":"2 49414  53.2162 274.4295 0001951  44.1067 316.0080 15.08836119 43405","RA_OF_ASC_NODE":"274.4295","MEAN_ANOMALY":"316.0080","ARG_OF_PERICENTER":"44.1067","SITE":"AFETR","GP_ID":"210903421","ECCENTRICITY":"0.00019510","CLASSIFICATION_TYPE":"U","FILE":"3546350","CENTER_NAME":"EARTH","DECAY_DATE":null,"MEAN_MOTION":"15.08836119","MEAN_MOTION_DOT":"0.00001337","MEAN_ELEMENT_THEORY":"SGP4","LAUNCH_DATE":"2021-11-13"},{"TLE_LINE1":"1 49415U 21104H   22236.50055472  .00000911  00000-0  75330-4 0  9997","SEMIMAJOR_AXIS":"6917.863","NORAD_CAT_ID":"49415","TIME_SYSTEM":"UTC","INCLINATION":"53.2157","ELEMENT_SET_NO":"999","RCS_SIZE":"LARGE","PERIAPSIS":"538.052","EPOCH":"2022-08-24T12:00:47.927808","EPHEMERIS_TYPE":"0","OBJECT_TYPE":"PAYLOAD","BSTAR":"0.00007533000000","OBJECT_NAME":"STARLINK-3159","REV_AT_EPOCH":"4353","REF_FRAME":"TEME","MEAN_MOTION_DDOT":"0.0000000000000","APOAPSIS":"541.403","COUNTRY_CODE":"US","TLE_LINE2":"2 49415  53.2157 264.4805 0002422  40.9617 319.1557 15.08845728 43538","PERIOD":"95.437","OBJECT_ID":"2021-104H","RA_OF_ASC_NODE":"264.4805","MEAN_ANOMALY":"319.1557","ECCENTRICITY":"0.00024220","GP_ID":"210902670","SITE":"AFETR","ARG_OF_PERICENTER":"40.9617","FILE":"3546350","CLASSIFICATION_TYPE":"U","MEAN_MOTION_DOT":"0.00000911","MEAN_MOTION":"15.08845728","DECAY_DATE":null,"CENTER_NAME":"EARTH","MEAN_ELEMENT_THEORY":"SGP4","LAUNCH_DATE":"2021-11-13"},{"RA_OF_ASC_NODE":"275.0496","MEAN_ANOMALY":"299.0787","ARG_OF_PERICENTER":"61.0370","SITE":"AFETR","ECCENTRICITY":"0.00016480","GP_ID":"210902920","OBJECT_ID":"2021-104J","PERIOD":"95.437","TLE_LINE2":"2 49416  53.2165 275.0496 0001648  61.0370 299.0787 15.08841737 43381","CENTER_NAME":"EARTH","DECAY_DATE":null,"MEAN_MOTION":"15.08841737","MEAN_MOTION_DOT":"0.00001129","LAUNCH_DATE":"2021-11-13","MEAN_ELEMENT_THEORY":"SGP4","CLASSIFICATION_TYPE":"U","FILE":"3546350","ELEMENT_SET_NO":"999","INCLINATION":"53.2165","EPOCH":"2022-08-24T08:54:01.259424","PERIAPSIS":"538.600","RCS_SIZE":"LARGE","NORAD_CAT_ID":"49416","SEMIMAJOR_AXIS":"6917.875","TLE_LINE1":"1 49416U 21104J   22236.37084791  .00001129  00000-0  88987-4 0  9993","TIME_SYSTEM":"UTC","REF_FRAME":"TEME","COUNTRY_CODE":"US","APOAPSIS":"540.880","MEAN_MOTION_DDOT":"0.0000000000000","OBJECT_TYPE":"PAYLOAD","EPHEMERIS_TYPE":"0","OBJECT_NAME":"STARLINK-3133","REV_AT_EPOCH":"4338","BSTAR":"0.00008898700000"},{"CENTER_NAME":"EARTH","DECAY_DATE":null,"MEAN_MOTION":"15.08837472","MEAN_MOTION_DOT":"-0.00001058","MEAN_ELEMENT_THEORY":"SGP4","LAUNCH_DATE":"2021-11-13","CLASSIFICATION_TYPE":"U","FILE":"3546350","MEAN_ANOMALY":"316.6735","RA_OF_ASC_NODE":"264.4990","ARG_OF_PERICENTER":"43.4429","SITE":"AFETR","GP_ID":"210903168","ECCENTRICITY":"0.00021910","OBJECT_ID":"2021-104K","PERIOD":"95.438","TLE_LINE2":"2 49417  53.2156 264.4990 0002191  43.4429 316.6735 15.08837472 43533","REF_FRAME":"TEME","COUNTRY_CODE":"US","MEAN_MOTION_DDOT":"0.0000000000000","APOAPSIS":"541.269","OBJECT_TYPE":"PAYLOAD","EPHEMERIS_TYPE":"0","REV_AT_EPOCH":"4353","OBJECT_NAME":"STARLINK-3154","BSTAR":"-0.00004840100000","ELEMENT_SET_NO":"999","INCLINATION":"53.2156","EPOCH":"2022-08-24T11:55:30.556416","PERIAPSIS":"538.237","RCS_SIZE":"LARGE","NORAD_CAT_ID":"49417","SEMIMAJOR_AXIS":"6917.888","TLE_LINE1":"1 49417U 21104K   22236.49688144 -.00001058  00000-0 -48401-4 0  9999","TIME_SYSTEM":"UTC"},{"TLE_LINE2":"2 49418  53.2158 274.4868 0001819  47.3826 312.7319 15.08834718 44492","PERIOD":"95.438","OBJECT_ID":"2021-104L","MEAN_ANOMALY":"312.7319","RA_OF_ASC_NODE":"274.4868","ECCENTRICITY":"0.00018190","GP_ID":"210909905","SITE":"AFETR","ARG_OF_PERICENTER":"47.3826","FILE":"3546565","CLASSIFICATION_TYPE":"U","MEAN_MOTION_DOT":"-0.00000700","MEAN_MOTION":"15.08834718","DECAY_DATE":null,"CENTER_NAME":"EARTH","LAUNCH_DATE":"2021-11-13","MEAN_ELEMENT_THEORY":"SGP4","TLE_LINE1":"1 49418U 21104L   22236.49964807 -.00000700  00000-0 -25911-4 0  9997","SEMIMAJOR_AXIS":"6917.897","NORAD_CAT_ID":"49418","TIME_SYSTEM":"UTC","INCLINATION":"53.2158","ELEMENT_SET_NO":"999","RCS_SIZE":"LARGE","PERIAPSIS":"538.503","EPOCH":"2022-08-24T11:59:29.593248","EPHEMERIS_TYPE":"0","OBJECT_TYPE":"PAYLOAD","BSTAR":"-0.00002591100000","REV_AT_EPOCH":"4449","OBJECT_NAME":"STARLINK-3111","REF_FRAME":"TEME","APOAPSIS":"541.020","MEAN_MOTION_DDOT":"0.0000000000000","COUNTRY_CODE":"US"},{"CLASSIFICATION_TYPE":"U","FILE":"3546565","CENTER_NAME":"EARTH","DECAY_DATE":null,"MEAN_MOTION":"15.08837905","MEAN_MOTION_DOT":"0.00001115","MEAN_ELEMENT_THEORY":"SGP4","LAUNCH_DATE":"2021-11-13","OBJECT_ID":"2021-104M","PERIOD":"95.438","TLE_LINE2":"2 49419  53.2163 274.5380 0001911  49.5751 310.5407 15.08837905 44476","RA_OF_ASC_NODE":"274.5380","MEAN_ANOMALY":"310.5407","ARG_OF_PERICENTER":"49.5751","SITE":"AFETR","GP_ID":"210909897","ECCENTRICITY":"0.00019110","OBJECT_TYPE":"PAYLOAD","EPHEMERIS_TYPE":"0","REV_AT_EPOCH":"4447","OBJECT_NAME":"STARLINK-3120","BSTAR":"0.00008815300000","REF_FRAME":"TEME","COUNTRY_CODE":"US","APOAPSIS":"541.074","MEAN_MOTION_DDOT":"0.0000000000000","NORAD_CAT_ID":"49419","SEMIMAJOR_AXIS":"6917.887","TLE_LINE1":"1 49419U 21104M   22236.48860711  .00001115  00000-0  88153-4 0  9992","TIME_SYSTEM":"UTC","ELEMENT_SET_NO":"999","INCLINATION":"53.2163","EPOCH":"2022-08-24T11:43:35.654304","PERIAPSIS":"538.430","RCS_SIZE":"LARGE"},{"APOAPSIS":"540.878","MEAN_MOTION_DDOT":"0.0000000000000","COUNTRY_CODE":"US","REF_FRAME":"TEME","BSTAR":"-0.00000620150000","REV_AT_EPOCH":"4338","OBJECT_NAME":"STARLINK-3110","EPHEMERIS_TYPE":"0","OBJECT_TYPE":"PAYLOAD","RCS_SIZE":"LARGE","PERIAPSIS":"538.640","EPOCH":"2022-08-24T10:18:48.424896","INCLINATION":"53.2172","ELEMENT_SET_NO":"999","TIME_SYSTEM":"UTC","TLE_LINE1":"1 49420U 21104N   22236.42972714 -.00000387  00000-0 -62015-5 0  9997","SEMIMAJOR_AXIS":"6917.894","NORAD_CAT_ID":"49420","LAUNCH_DATE":"2021-11-13","MEAN_ELEMENT_THEORY":"SGP4","MEAN_MOTION_DOT":"-0.00000387","MEAN_MOTION":"15.08835526","DECAY_DATE":null,"CENTER_NAME":"EARTH","FILE":"3546350","CLASSIFICATION_TYPE":"U","GP_ID":"210902421","ECCENTRICITY":"0.00016180","SITE":"AFETR","ARG_OF_PERICENTER":"58.7205","RA_OF_ASC_NODE":"274.7871","MEAN_ANOMALY":"301.3945","TLE_LINE2":"2 49420  53.2172 274.7871 0001618  58.7205 301.3945 15.08835526 43386","PERIOD":"95.438","OBJECT_ID":"2021-104N"},{"RCS_SIZE":"LARGE","EPOCH":"2022-08-24T13:08:22.065504","PERIAPSIS":"538.449","INCLINATION":"53.2160","ELEMENT_SET_NO":"999","TIME_SYSTEM":"UTC","SEMIMAJOR_AXIS":"6917.869","TLE_LINE1":"1 49421U 21104P   22236.54747761  .00001005  00000-0  81234-4 0  9992","NORAD_CAT_ID":"49421","APOAPSIS":"541.019","MEAN_MOTION_DDOT":"0.0000000000000","COUNTRY_CODE":"US","REF_FRAME":"TEME","BSTAR":"0.00008123400000","REV_AT_EPOCH":"4340","OBJECT_NAME":"STARLINK-3112","OBJECT_TYPE":"PAYLOAD","EPHEMERIS_TYPE":"0","SITE":"AFETR","ECCENTRICITY":"0.00018570","GP_ID":"210935774","ARG_OF_PERICENTER":"45.5103","RA_OF_ASC_NODE":"274.2724","MEAN_ANOMALY":"314.6041","PERIOD":"95.437","TLE_LINE2":"2 49421  53.2160 274.2724 0001857  45.5103 314.6041 15.08843704 43406","OBJECT_ID":"2021-104P","LAUNCH_DATE":"2021-11-13","MEAN_ELEMENT_THEORY":"SGP4","MEAN_MOTION":"15.08843704","MEAN_MOTION_DOT":"0.00001005","CENTER_NAME":"EARTH","DECAY_DATE":null,"CLASSIFICATION_TYPE":"U","FILE":"3546663"},{"OBJECT_ID":"2021-104Q","PERIOD":"95.438","TLE_LINE2":"2 49422  53.2165 274.5207 0001633  54.3429 305.7715 15.08828536 43395","RA_OF_ASC_NODE":"274.5207","MEAN_ANOMALY":"305.7715","ARG_OF_PERICENTER":"54.3429","SITE":"AFETR","GP_ID":"210903422","ECCENTRICITY":"0.00016330","CLASSIFICATION_TYPE":"U","FILE":"3546350","CENTER_NAME":"EARTH","DECAY_DATE":null,"MEAN_MOTION":"15.08828536","MEAN_MOTION_DOT":"0.00000974","MEAN_ELEMENT_THEORY":"SGP4","LAUNCH_DATE":"2021-11-13","NORAD_CAT_ID":"49422","SEMIMAJOR_AXIS":"6917.915","TLE_LINE1":"1 49422U 21104Q   22236.49229476  .00000974  00000-0  79327-4 0  9999","TIME_SYSTEM":"UTC","ELEMENT_SET_NO":"999","INCLINATION":"53.2165","EPOCH":"2022-08-24T11:48:54.267264","PERIAPSIS":"538.651","RCS_SIZE":"LARGE","OBJECT_TYPE":"PAYLOAD","EPHEMERIS_TYPE":"0","OBJECT_NAME":"STARLINK-3161","REV_AT_EPOCH":"4339","BSTAR":"0.00007932700000","REF_FRAME":"TEME","COUNTRY_CODE":"US","APOAPSIS":"540.910","MEAN_MOTION_DDOT":"0.0000000000000"},{"REF_FRAME":"TEME","APOAPSIS":"541.013","MEAN_MOTION_DDOT":"0.0000000000000","COUNTRY_CODE":"US","EPHEMERIS_TYPE":"0","OBJECT_TYPE":"PAYLOAD","BSTAR":"-0.00002780200000","REV_AT_EPOCH":"4338","OBJECT_NAME":"STARLINK-3149","INCLINATION":"53.2161","ELEMENT_SET_NO":"999","RCS_SIZE":"LARGE","PERIAPSIS":"538.515","EPOCH":"2022-08-24T09:47:00.893472","TLE_LINE1":"1 49423U 21104R   22236.40764923 -.00000730  00000-0 -27802-4 0  9995","SEMIMAJOR_AXIS":"6917.899","NORAD_CAT_ID":"49423","TIME_SYSTEM":"UTC","MEAN_MOTION_DOT":"-0.00000730","MEAN_MOTION":"15.08833903","DECAY_DATE":null,"CENTER_NAME":"EARTH","MEAN_ELEMENT_THEORY":"SGP4","LAUNCH_DATE":"2021-11-13","FILE":"3546663","CLASSIFICATION_TYPE":"U","RA_OF_ASC_NODE":"274.9035","MEAN_ANOMALY":"306.6835","ECCENTRICITY":"0.00018050","GP_ID":"210934772","SITE":"AFETR","ARG_OF_PERICENTER":"53.4323","TLE_LINE2":"2 49423  53.2161 274.9035 0001805  53.4323 306.6835 15.08833903 43385","PERIOD":"95.438","OBJECT_ID":"2021-104R"}];
